STARLINK-2464
1 18123C 21027AH  21326.16234419  .00000735  00000-0  49212-4 0  3265
2 18123  53.0547 353.0021 0001703  54.4121  46.2463 15.06407862    11
